GIOVE-A                 
1 28922U 05051A   08209.79298453  .00000041  00000-0  10000-3 0  3757
2 28922  56.0563 165.9144 0009086 324.8071  35.0885  1.70188485 16040
GIOVE-B                 
1 32781U 08020A   08211.06101250  .00000074  00000-0  10000-3 0   477
2 32781  55.9767 200.9023 0024578 224.9896 134.8099  1.70899103  1603
